start=new Date('2021-12-26T00:00:00.000Z').valueOf();
sats=[{"SITE":"AFETR","PERIOD":"95.592","MEAN_MOTION_DDOT":"0.0000000000000","MEAN_ANOMALY":"269.9644","NORAD_CAT_ID":"48638","CENTER_NAME":"EARTH","CLASSIFICATION_TYPE":"U","MEAN_MOTION_DOT":"0.00001351","COUNTRY_CODE":"US","OBJECT_NAME":"STARLINK-2758","TLE_LINE2":"2 48638  53.0551 167.0468 0002804  90.1666 269.9644 15.06400116 32430","OBJECT_TYPE":"PAYLOAD","LAUNCH_DATE":"2021-05-26","TIME_SYSTEM":"UTC","APOAPSIS":"549.155","EPHEMERIS_TYPE":"0","ELEMENT_SET_NO":"999","MEAN_ELEMENT_THEORY":"SGP4","REF_FRAME":"TEME","BSTAR":"0.00010960000000","OBJECT_ID":"2021-044A","RCS_SIZE":"LARGE","INCLINATION":"53.0551","FILE":"3250974","DECAY_DATE":null,"EPOCH":"2021-12-25T18:56:52.932192","PERIAPSIS":"545.271","GP_ID":"192459563","ECCENTRICITY":"0.00028040","ARG_OF_PERICENTER":"90.1666","MEAN_MOTION":"15.06400116","SEMIMAJOR_AXIS":"6925.348","RA_OF_ASC_NODE":"167.0468","TLE_LINE1":"1 48638U 21044A   21359.78950153  .00001351  00000-0  10960-3 0  9997","REV_AT_EPOCH":"3243"},{"OBJECT_ID":"2021-044B","BSTAR":"0.00011017000000","RCS_SIZE":"LARGE","INCLINATION":"53.0558","FILE":"3250974","DECAY_DATE":null,"EPOCH":"2021-12-25T21:46:43.705920","GP_ID":"192458385","PERIAPSIS":"545.623","ARG_OF_PERICENTER":"92.9065","ECCENTRICITY":"0.00023070","SEMIMAJOR_AXIS":"6925.356","RA_OF_ASC_NODE":"166.5081","MEAN_MOTION":"15.06397711","REV_AT_EPOCH":"3245","TLE_LINE1":"1 48639U 21044B   21359.90745030  .00001359  00000-0  11017-3 0  9990","PERIOD":"95.592","MEAN_MOTION_DDOT":"0.0000000000000","SITE":"AFETR","MEAN_MOTION_DOT":"0.00001359","NORAD_CAT_ID":"48639","CENTER_NAME":"EARTH","MEAN_ANOMALY":"267.2188","CLASSIFICATION_TYPE":"U","TLE_LINE2":"2 48639  53.0558 166.5081 0002307  92.9065 267.2188 15.06397711 32456","OBJECT_TYPE":"PAYLOAD","COUNTRY_CODE":"US","OBJECT_NAME":"STARLINK-2739","TIME_SYSTEM":"UTC","LAUNCH_DATE":"2021-05-26","ELEMENT_SET_NO":"999","APOAPSIS":"548.818","EPHEMERIS_TYPE":"0","REF_FRAME":"TEME","MEAN_ELEMENT_THEORY":"SGP4"},{"MEAN_ELEMENT_THEORY":"SGP4","REF_FRAME":"TEME","EPHEMERIS_TYPE":"0","APOAPSIS":"549.016","ELEMENT_SET_NO":"999","LAUNCH_DATE":"2021-05-26","TIME_SYSTEM":"UTC","COUNTRY_CODE":"US","OBJECT_NAME":"STARLINK-2736","TLE_LINE2":"2 48640  53.0547 166.6703 0002620  87.1585 272.9704 15.06403817 32440","OBJECT_TYPE":"PAYLOAD","NORAD_CAT_ID":"48640","MEAN_ANOMALY":"272.9704","CENTER_NAME":"EARTH","CLASSIFICATION_TYPE":"U","MEAN_MOTION_DOT":"0.00001999","SITE":"AFETR","PERIOD":"95.592","MEAN_MOTION_DDOT":"0.0000000000000","TLE_LINE1":"1 48640U 21044C   21359.87427141  .00001999  00000-0  15306-3 0  9993","REV_AT_EPOCH":"3244","SEMIMAJOR_AXIS":"6925.337","MEAN_MOTION":"15.06403817","RA_OF_ASC_NODE":"166.6703","ECCENTRICITY":"0.00026200","ARG_OF_PERICENTER":"87.1585","PERIAPSIS":"545.387","GP_ID":"192459094","FILE":"3250974","EPOCH":"2021-12-25T20:58:57.049824","DECAY_DATE":null,"RCS_SIZE":"LARGE","INCLINATION":"53.0547","BSTAR":"0.00015306000000","OBJECT_ID":"2021-044C"},{"GP_ID":"192459330","PERIAPSIS":"545.590","FILE":"3250974","DECAY_DATE":null,"EPOCH":"2021-12-25T20:19:50.827584","RCS_SIZE":"LARGE","INCLINATION":"53.0547","OBJECT_ID":"2021-044D","BSTAR":"0.00000072564000","REV_AT_EPOCH":"3237","TLE_LINE1":"1 48641U 21044D   21359.84711606 -.00000271  00000-0  72564-6 0  9998","SEMIMAJOR_AXIS":"6925.362","RA_OF_ASC_NODE":"171.7928","MEAN_MOTION":"15.06395452","ARG_OF_PERICENTER":"91.4222","ECCENTRICITY":"0.00023640","TLE_LINE2":"2 48641  53.0547 171.7928 0002364  91.4222 268.7038 15.06395452 32378","OBJECT_TYPE":"PAYLOAD","COUNTRY_CODE":"US","OBJECT_NAME":"STARLINK-2754","MEAN_MOTION_DOT":"-0.00000271","MEAN_ANOMALY":"268.7038","NORAD_CAT_ID":"48641","CENTER_NAME":"EARTH","CLASSIFICATION_TYPE":"U","PERIOD":"95.592","MEAN_MOTION_DDOT":"0.0000000000000","SITE":"AFETR","REF_FRAME":"TEME","MEAN_ELEMENT_THEORY":"SGP4","ELEMENT_SET_NO":"999","EPHEMERIS_TYPE":"0","APOAPSIS":"548.865","TIME_SYSTEM":"UTC","LAUNCH_DATE":"2021-05-26"},{"SITE":"AFETR","MEAN_MOTION_DDOT":"0.0000000000000","PERIOD":"95.593","COUNTRY_CODE":"US","OBJECT_NAME":"STARLINK-2646","OBJECT_TYPE":"PAYLOAD","TLE_LINE2":"2 48642  53.0560 171.7182 0002479  88.6735 271.4538 15.06389533 32379","CLASSIFICATION_TYPE":"U","MEAN_ANOMALY":"271.4538","NORAD_CAT_ID":"48642","CENTER_NAME":"EARTH","MEAN_MOTION_DOT":"-0.00000758","LAUNCH_DATE":"2021-05-26","TIME_SYSTEM":"UTC","MEAN_ELEMENT_THEORY":"SGP4","REF_FRAME":"TEME","APOAPSIS":"548.962","EPHEMERIS_TYPE":"0","ELEMENT_SET_NO":"999","INCLINATION":"53.0560","RCS_SIZE":"LARGE","BSTAR":"-0.00003195000000","OBJECT_ID":"2021-044E","PERIAPSIS":"545.529","GP_ID":"192460034","DECAY_DATE":null,"EPOCH":"2021-12-25T20:39:43.328160","FILE":"3250974","SEMIMAJOR_AXIS":"6925.381","MEAN_MOTION":"15.06389533","RA_OF_ASC_NODE":"171.7182","ECCENTRICITY":"0.00024790","ARG_OF_PERICENTER":"88.6735","TLE_LINE1":"1 48642U 21044E   21359.86091815 -.00000758  00000-0 -31950-4 0  9997","REV_AT_EPOCH":"3237"},{"ARG_OF_PERICENTER":"91.6751","ECCENTRICITY":"0.00024410","RA_OF_ASC_NODE":"171.8024","SEMIMAJOR_AXIS":"6925.336","MEAN_MOTION":"15.06404028","REV_AT_EPOCH":"3237","TLE_LINE1":"1 48643U 21044F   21359.84343366  .00002590  00000-0  19274-3 0  9995","OBJECT_ID":"2021-044F","BSTAR":"0.00019274000000","INCLINATION":"53.0534","RCS_SIZE":"LARGE","DECAY_DATE":null,"EPOCH":"2021-12-25T20:14:32.668224","FILE":"3250974","GP_ID":"192458858","PERIAPSIS":"545.511","TIME_SYSTEM":"UTC","LAUNCH_DATE":"2021-05-26","ELEMENT_SET_NO":"999","APOAPSIS":"548.892","EPHEMERIS_TYPE":"0","REF_FRAME":"TEME","MEAN_ELEMENT_THEORY":"SGP4","MEAN_MOTION_DDOT":"0.0000000000000","PERIOD":"95.592","SITE":"AFETR","MEAN_MOTION_DOT":"0.00002590","CLASSIFICATION_TYPE":"U","CENTER_NAME":"EARTH","NORAD_CAT_ID":"48643","MEAN_ANOMALY":"268.4518","OBJECT_TYPE":"PAYLOAD","TLE_LINE2":"2 48643  53.0534 171.8024 0002441  91.6751 268.4518 15.06404028 32379","COUNTRY_CODE":"US","OBJECT_NAME":"STARLINK-2704"},{"MEAN_ELEMENT_THEORY":"SGP4","REF_FRAME":"TEME","EPHEMERIS_TYPE":"0","APOAPSIS":"548.885","ELEMENT_SET_NO":"999","LAUNCH_DATE":"2021-05-26","TIME_SYSTEM":"UTC","COUNTRY_CODE":"US","OBJECT_NAME":"STARLINK-2695","TLE_LINE2":"2 48644  53.0554 171.5293 0002400  83.0791 277.0471 15.06397033 32383","OBJECT_TYPE":"PAYLOAD","NORAD_CAT_ID":"48644","CENTER_NAME":"EARTH","MEAN_ANOMALY":"277.0471","CLASSIFICATION_TYPE":"U","MEAN_MOTION_DOT":"-0.00000674","SITE":"AFETR","PERIOD":"95.592","MEAN_MOTION_DDOT":"0.0000000000000","TLE_LINE1":"1 48644U 21044G   21359.90608688 -.00000674  00000-0 -26346-4 0  9996","REV_AT_EPOCH":"3238","SEMIMAJOR_AXIS":"6925.358","RA_OF_ASC_NODE":"171.5293","MEAN_MOTION":"15.06397033","ECCENTRICITY":"0.00024000","ARG_OF_PERICENTER":"83.0791","PERIAPSIS":"545.561","GP_ID":"192458621","FILE":"3250974","DECAY_DATE":null,"EPOCH":"2021-12-25T21:44:45.906432","RCS_SIZE":"LARGE","INCLINATION":"53.0554","BSTAR":"-0.00002634600000","OBJECT_ID":"2021-044G"},{"TLE_LINE1":"1 48645U 21044H   21359.83607360  .00002865  00000-0  21121-3 0  9992","REV_AT_EPOCH":"3237","ECCENTRICITY":"0.00024570","ARG_OF_PERICENTER":"87.4805","MEAN_MOTION":"15.06398917","SEMIMAJOR_AXIS":"6925.352","RA_OF_ASC_NODE":"171.8419","FILE":"3250974","DECAY_DATE":null,"EPOCH":"2021-12-25T20:03:56.759040","PERIAPSIS":"545.515","GP_ID":"192459800","BSTAR":"0.00021121000000","OBJECT_ID":"2021-044H","RCS_SIZE":"LARGE","INCLINATION":"53.0549","APOAPSIS":"548.918","EPHEMERIS_TYPE":"0","ELEMENT_SET_NO":"999","MEAN_ELEMENT_THEORY":"SGP4","REF_FRAME":"TEME","LAUNCH_DATE":"2021-05-26","TIME_SYSTEM":"UTC","NORAD_CAT_ID":"48645","MEAN_ANOMALY":"272.6465","CENTER_NAME":"EARTH","CLASSIFICATION_TYPE":"U","MEAN_MOTION_DOT":"0.00002865","OBJECT_NAME":"STARLINK-2733","COUNTRY_CODE":"US","TLE_LINE2":"2 48645  53.0549 171.8419 0002457  87.4805 272.6465 15.06398917 32372","OBJECT_TYPE":"PAYLOAD","SITE":"AFETR","PERIOD":"95.592","MEAN_MOTION_DDOT":"0.0000000000000"},{"EPOCH":"2021-12-25T21:34:09.020928","DECAY_DATE":null,"FILE":"3250974","GP_ID":"192459564","PERIAPSIS":"545.110","OBJECT_ID":"2021-044J","BSTAR":"-0.00011124000000","INCLINATION":"53.0543","RCS_SIZE":"LARGE","REV_AT_EPOCH":"3238","TLE_LINE1":"1 48646U 21044J   21359.89871552 -.00001939  00000-0 -11124-3 0  9990","ARG_OF_PERICENTER":"95.3386","ECCENTRICITY":"0.00030280","RA_OF_ASC_NODE":"171.5491","SEMIMAJOR_AXIS":"6925.342","MEAN_MOTION":"15.06402244","MEAN_MOTION_DOT":"-0.00001939","CLASSIFICATION_TYPE":"U","CENTER_NAME":"EARTH","NORAD_CAT_ID":"48646","MEAN_ANOMALY":"264.7948","OBJECT_TYPE":"PAYLOAD","TLE_LINE2":"2 48646  53.0543 171.5491 0003028  95.3386 264.7948 15.06402244 32389","OBJECT_NAME":"STARLINK-2732","COUNTRY_CODE":"US","MEAN_MOTION_DDOT":"0.0000000000000","PERIOD":"95.592","SITE":"AFETR","ELEMENT_SET_NO":"999","APOAPSIS":"549.304","EPHEMERIS_TYPE":"0","REF_FRAME":"TEME","MEAN_ELEMENT_THEORY":"SGP4","TIME_SYSTEM":"UTC","LAUNCH_DATE":"2021-05-26"},{"ELEMENT_SET_NO":"999","EPHEMERIS_TYPE":"0","APOAPSIS":"549.017","REF_FRAME":"TEME","MEAN_ELEMENT_THEORY":"SGP4","TIME_SYSTEM":"UTC","LAUNCH_DATE":"2021-05-26","MEAN_MOTION_DOT":"-0.00000655","CLASSIFICATION_TYPE":"U","NORAD_CAT_ID":"48647","MEAN_ANOMALY":"270.1544","CENTER_NAME":"EARTH","OBJECT_TYPE":"PAYLOAD","TLE_LINE2":"2 48647  53.0545 172.1748 0002575  89.9740 270.1544 15.06393341 32361","COUNTRY_CODE":"US","OBJECT_NAME":"STARLINK-2691","MEAN_MOTION_DDOT":"0.0000000000000","PERIOD":"95.593","SITE":"AFETR","REV_AT_EPOCH":"3236","TLE_LINE1":"1 48647U 21044K   21359.76233833 -.00000655  00000-0 -25019-4 0  9994","ARG_OF_PERICENTER":"89.9740","ECCENTRICITY":"0.00025750","SEMIMAJOR_AXIS":"6925.369","RA_OF_ASC_NODE":"172.1748","MEAN_MOTION":"15.06393341","EPOCH":"2021-12-25T18:17:46.031712","DECAY_DATE":null,"FILE":"3250974","GP_ID":"192458386","PERIAPSIS":"545.451","OBJECT_ID":"2021-044K","BSTAR":"-0.00002501900000","INCLINATION":"53.0545","RCS_SIZE":"LARGE"}];
